{
  "type": "FeatureCollection",
  "features": [
    {
      "type": "Feature",
      "properties": {
        "norad_id": 31025,
        "name": "FENGYUN 1C DEB",
        "group": "fengyun-1c-debris",
        "lat": -14.197895826901558,
        "lon": -10.23129216300944,
        "alt_km": 703.36538897429,
        "timestamp": "2025-12-23T16:57:12.632794+00:00",
        "meta_object_name": "FENGYUN 1C DEB",
        "meta_object_id": "1999-025BDT",
        "meta_epoch": "2025-12-07T05:28:07.771008",
        "meta_mean_motion": 14.20521805,
        "meta_eccentricity": 0.01734931,
        "meta_inclination": 98.58,
        "meta_ra_of_asc_node": 331.5793,
        "meta_arg_of_pericenter": 28.741,
        "meta_mean_anomaly": 332.3194,
        "meta_ephemeris_type": 0,
        "meta_classification_type": "U",
        "meta_norad_cat_id": 31025,
        "meta_element_set_no": 999,
        "meta_rev_at_epoch": 64287,
        "meta_bstar": 0.0012507545,
        "meta_mean_motion_dot": 3.084e-05,
        "meta_mean_motion_ddot": 0,
        "tle_line1": "1 31025U 99025BDT 25341.22786772  .00003084  00000+0  12508-2 0  9994",
        "tle_line2": "2 31025  98.5800 331.5793 0173493  28.7410 332.3194 14.20521805642873"
      },
      "geometry": {
        "type": "Point",
        "coordinates": [
          -10.23129216300944,
          -14.197895826901558
        ]
      }
    },
    {
      "type": "Feature",
      "properties": {
        "norad_id": 31026,
        "name": "FENGYUN 1C DEB",
        "group": "fengyun-1c-debris",
        "lat": -35.341811603818826,
        "lon": -61.16727430469775,
        "alt_km": 1055.4997800735973,
        "timestamp": "2025-12-23T16:57:12.632804+00:00",
        "meta_object_name": "FENGYUN 1C DEB",
        "meta_object_id": "1999-025BDU",
        "meta_epoch": "2025-12-16T14:07:08.116896",
        "meta_mean_motion": 13.83400412,
        "meta_eccentricity": 0.01344959,
        "meta_inclination": 98.7801,
        "meta_ra_of_asc_node": 285.8947,
        "meta_arg_of_pericenter": 172.0946,
        "meta_mean_anomaly": 1.2766,
        "meta_ephemeris_type": 0,
        "meta_classification_type": "U",
        "meta_norad_cat_id": 31026,
        "meta_element_set_no": 999,
        "meta_rev_at_epoch": 68079,
        "meta_bstar": 0.00014906948,
        "meta_mean_motion_dot": 1.36e-06,
        "meta_mean_motion_ddot": 0,
        "tle_line1": "1 31026U 99025BDU 25350.58828839  .00000136  00000+0  14907-3 0  9996",
        "tle_line2": "2 31026  98.7801 285.8947 0134495 172.0946   1.2766 13.83400412680793"
      },
      "geometry": {
        "type": "Point",
        "coordinates": [
          -61.16727430469775,
          -35.341811603818826
        ]
      }
    },
    {
      "type": "Feature",
      "properties": {
        "norad_id": 31028,
        "name": "FENGYUN 1C DEB",
        "group": "fengyun-1c-debris",
        "lat": -14.387126304021743,
        "lon": 106.59197725906779,
        "alt_km": 893.3026129442751,
        "timestamp": "2025-12-23T16:57:12.632817+00:00",
        "meta_object_name": "FENGYUN 1C DEB",
        "meta_object_id": "1999-025BDW",
        "meta_epoch": "2025-12-16T00:45:35.214048",
        "meta_mean_motion": 13.89074855,
        "meta_eccentricity": 0.01643907,
        "meta_inclination": 98.7052,
        "meta_ra_of_asc_node": 281.6698,
        "meta_arg_of_pericenter": 285.3135,
        "meta_mean_anomaly": 72.9908,
        "meta_ephemeris_type": 0,
        "meta_classification_type": "U",
        "meta_norad_cat_id": 31028,
        "meta_element_set_no": 999,
        "meta_rev_at_epoch": 62049,
        "meta_bstar": 0.0002880402,
        "meta_mean_motion_dot": 3.48e-06,
        "meta_mean_motion_ddot": 0,
        "tle_line1": "1 31028U 99025BDW 25350.03165757  .00000348  00000+0  28804-3 0  9997",
        "tle_line2": "2 31028  98.7052 281.6698 0164390 285.3135  72.9908 13.89074855620493"
      },
      "geometry": {
        "type": "Point",
        "coordinates": [
          106.59197725906779,
          -14.387126304021743
        ]
      }
    },
    {
      "type": "Feature",
      "properties": {
        "norad_id": 31029,
        "name": "FENGYUN 1C DEB",
        "group": "fengyun-1c-debris",
        "lat": 74.79681887154804,
        "lon": 109.9012879992991,
        "alt_km": 737.881302300304,
        "timestamp": "2025-12-23T16:57:12.632828+00:00",
        "meta_object_name": "FENGYUN 1C DEB",
        "meta_object_id": "1999-025BDX",
        "meta_epoch": "2025-12-21T22:54:47.355264",
        "meta_mean_motion": 14.34340138,
        "meta_eccentricity": 0.00900149,
        "meta_inclination": 98.8588,
        "meta_ra_of_asc_node": 253.0837,
        "meta_arg_of_pericenter": 47.0773,
        "meta_mean_anomaly": 14.5142,
        "meta_ephemeris_type": 0,
        "meta_classification_type": "U",
        "meta_norad_cat_id": 31029,
        "meta_element_set_no": 999,
        "meta_rev_at_epoch": 97928,
        "meta_bstar": 0.00032935697,
        "meta_mean_motion_dot": 9.22e-06,
        "meta_mean_motion_ddot": 0,
        "tle_line1": "1 31029U 99025BDX 25355.95471476  .00000922  00000+0  32936-3 0  9991",
        "tle_line2": "2 31029  98.8588 253.0837 0090014  47.0773  14.5142 14.34340138979286"
      },
      "geometry": {
        "type": "Point",
        "coordinates": [
          109.9012879992991,
          74.79681887154804
        ]
      }
    },
    {
      "type": "Feature",
      "properties": {
        "norad_id": 31030,
        "name": "FENGYUN 1C DEB",
        "group": "fengyun-1c-debris",
        "lat": -42.7983190767957,
        "lon": -128.6226288670805,
        "alt_km": 838.71920695281,
        "timestamp": "2025-12-23T16:57:12.632838+00:00",
        "meta_object_name": "FENGYUN 1C DEB",
        "meta_object_id": "1999-025BDY",
        "meta_epoch": "2025-12-23T02:42:45.900864",
        "meta_mean_motion": 14.23711655,
        "meta_eccentricity": 0.00272265,
        "meta_inclination": 98.7654,
        "meta_ra_of_asc_node": 58.9998,
        "meta_arg_of_pericenter": 54.6084,
        "meta_mean_anomaly": 9.1816,
        "meta_ephemeris_type": 0,
        "meta_classification_type": "U",
        "meta_norad_cat_id": 31030,
        "meta_element_set_no": 999,
        "meta_rev_at_epoch": 96852,
        "meta_bstar": 0.00089691608,
        "meta_mean_motion_dot": 2.012e-05,
        "meta_mean_motion_ddot": 0,
        "tle_line1": "1 31030U 99025BDY 25357.11303126  .00002012  00000+0  89692-3 0  9992",
        "tle_line2": "2 31030  98.7654  58.9998 0027226  54.6084   9.1816 14.23711655968522"
      },
      "geometry": {
        "type": "Point",
        "coordinates": [
          -128.6226288670805,
          -42.7983190767957
        ]
      }
    },
    {
      "type": "Feature",
      "properties": {
        "norad_id": 31031,
        "name": "FENGYUN 1C DEB",
        "group": "fengyun-1c-debris",
        "lat": 59.07708462951149,
        "lon": 110.56852293588102,
        "alt_km": 799.6427912888912,
        "timestamp": "2025-12-23T16:57:12.632848+00:00",
        "meta_object_name": "FENGYUN 1C DEB",
        "meta_object_id": "1999-025BDZ",
        "meta_epoch": "2025-12-21T05:57:49.745952",
        "meta_mean_motion": 14.20999102,
        "meta_eccentricity": 0.00279946,
        "meta_inclination": 99.0717,
        "meta_ra_of_asc_node": 272.5772,
        "meta_arg_of_pericenter": 161.5115,
        "meta_mean_anomaly": 351.6583,
        "meta_ephemeris_type": 0,
        "meta_classification_type": "U",
        "meta_norad_cat_id": 31031,
        "meta_element_set_no": 999,
        "meta_rev_at_epoch": 96975,
        "meta_bstar": 0.00037006692,
        "meta_mean_motion_dot": 7.59e-06,
        "meta_mean_motion_ddot": 0,
        "tle_line1": "1 31031U 99025BDZ 25355.24849243  .00000759  00000+0  37007-3 0  9999",
        "tle_line2": "2 31031  99.0717 272.5772 0027994 161.5115 351.6583 14.20999102969750"
      },
      "geometry": {
        "type": "Point",
        "coordinates": [
          110.56852293588102,
          59.07708462951149
        ]
      }
    },
    {
      "type": "Feature",
      "properties": {
        "norad_id": 31032,
        "name": "FENGYUN 1C DEB",
        "group": "fengyun-1c-debris",
        "lat": 60.330166335208446,
        "lon": -156.2253481298268,
        "alt_km": 811.5974970600828,
        "timestamp": "2025-12-23T16:57:12.632861+00:00",
        "meta_object_name": "FENGYUN 1C DEB",
        "meta_object_id": "1999-025BEA",
        "meta_epoch": "2025-12-22T08:27:25.586208",
        "meta_mean_motion": 14.02237053,
        "meta_eccentricity": 0.0139242,
        "meta_inclination": 99.3987,
        "meta_ra_of_asc_node": 5.4768,
        "meta_arg_of_pericenter": 169.8785,
        "meta_mean_anomaly": 318.062,
        "meta_ephemeris_type": 0,
        "meta_classification_type": "U",
        "meta_norad_cat_id": 31032,
        "meta_element_set_no": 999,
        "meta_rev_at_epoch": 95116,
        "meta_bstar": 0.0013706393,
        "meta_mean_motion_dot": 2.239e-05,
        "meta_mean_motion_ddot": 0,
        "tle_line1": "1 31032U 99025BEA 25356.35237947  .00002239  00000+0  13706-2 0  9999",
        "tle_line2": "2 31032  99.3987   5.4768 0139242 169.8785 318.0620 14.02237053951160"
      },
      "geometry": {
        "type": "Point",
        "coordinates": [
          -156.2253481298268,
          60.330166335208446
        ]
      }
    }
  ]
}